ONEWEB-0331             
1 49198U 21083N   25288.52148115 -.00000137  00000+0 -37991-3 0  9991
2 49198  87.9232  24.0334 0001824  89.1166 271.0175 13.18686161197760
ONEWEB-0333             
1 49199U 21083P   25288.30537865  .00000144  00000+0  35959-3 0  9990
2 49199  87.9036   8.9243 0001803 103.2479 256.8851 13.13469850198767
ONEWEB-0334             
1 49200U 21083Q   25288.52385507  .00000059  00000+0  11293-3 0  9991
2 49200  87.9210 323.2576 0001956 125.9554 234.1761 13.20770117204496
ONEWEB-0335             
1 49201U 21083R   25288.22412033  .00000295  00000+0  77157-3 0  9997
2 49201  87.9038   8.9279 0001859  94.9527 265.1815 13.13470978198769
ONEWEB-0336             
1 49202U 21083S   25288.27151864 -.00000050  00000+0 -17066-3 0  9999
2 49202  87.9037   8.9134 0001922  87.8883 272.2466 13.13470704198764
ONEWEB-0337             
1 49203U 21083T   25288.51007482  .00000240  00000+0  62149-3 0  9994
2 49203  87.9044   8.8734 0002046  96.3829 263.7534 13.13471197198792
ONEWEB-0338             
1 49204U 21083U   25288.57437540  .00000007  00000+0 -15245-4 0  9991
2 49204  87.9217 323.2484 0001900 104.9161 255.2183 13.20772209204525
ONEWEB-0339             
1 49205U 21083V   25288.51866985  .00000355  00000+0  93724-3 0  9997
2 49205  87.9043   8.8546 0001958 103.8458 256.2890 13.13472164198772
